CCSDS_OMM_VERS = 2.0
CREATION_DATE  = 
ORIGINATOR     = 

OBJECT_NAME    = STARLINK-35833
OBJECT_ID      = 2025-265AC
CENTER_NAME    = EARTH
REF_FRAME      = TEME
TIME_SYSTEM    = UTC
MEAN_ELEMENT_THEORY = SGP/SGP4

EPOCH          = 2025-11-30T14:00:01.999872
MEAN_MOTION    = 15.78172002
ECCENTRICITY   = .00015703
INCLINATION    = 43.0000
RA_OF_ASC_NODE = 126.4159
ARG_OF_PERICENTER = 279.1905
MEAN_ANOMALY   = 148.1942

EPHEMERIS_TYPE = 0
CLASSIFICATION_TYPE = U
NORAD_CAT_ID   = 66542
ELEMENT_SET_NO = 999
REV_AT_EPOCH   = 304
BSTAR          = -.11019327E-1
MEAN_MOTION_DOT = -.1719023E-1
MEAN_MOTION_DDOT = 0

CCSDS_OMM_VERS = 2.0
CREATION_DATE  = 
ORIGINATOR     = 

OBJECT_NAME    = STARLINK-35315
OBJECT_ID      = 2025-265AD
CENTER_NAME    = EARTH
REF_FRAME      = TEME
TIME_SYSTEM    = UTC
MEAN_ELEMENT_THEORY = SGP/SGP4

EPOCH          = 2025-11-30T14:00:01.999872
MEAN_MOTION    = 15.78147381
ECCENTRICITY   = .00014696
INCLINATION    = 43.0000
RA_OF_ASC_NODE = 126.4103
ARG_OF_PERICENTER = 277.9075
MEAN_ANOMALY   = 151.4931

EPHEMERIS_TYPE = 0
CLASSIFICATION_TYPE = U
NORAD_CAT_ID   = 66543
ELEMENT_SET_NO = 999
REV_AT_EPOCH   = 293
BSTAR          = -.11090023E-1
MEAN_MOTION_DOT = -.1726963E-1
MEAN_MOTION_DDOT = 0

CCSDS_OMM_VERS = 2.0
CREATION_DATE  = 
ORIGINATOR     = 

OBJECT_NAME    = STARLINK-35728
OBJECT_ID      = 2025-265AE
CENTER_NAME    = EARTH
REF_FRAME      = TEME
TIME_SYSTEM    = UTC
MEAN_ELEMENT_THEORY = SGP/SGP4

EPOCH          = 2025-11-30T14:00:01.999872
MEAN_MOTION    = 15.78135571
ECCENTRICITY   = .00016419
INCLINATION    = 42.9998
RA_OF_ASC_NODE = 126.4057
ARG_OF_PERICENTER = 278.9415
MEAN_ANOMALY   = 152.4197

EPHEMERIS_TYPE = 0
CLASSIFICATION_TYPE = U
NORAD_CAT_ID   = 66544
ELEMENT_SET_NO = 999
REV_AT_EPOCH   = 304
BSTAR          = -.1110915E-1
MEAN_MOTION_DOT = -.1728906E-1
MEAN_MOTION_DDOT = 0

CCSDS_OMM_VERS = 2.0
CREATION_DATE  = 
ORIGINATOR     = 

OBJECT_NAME    = SHIJIAN-30A
OBJECT_ID      = 2025-266A
CENTER_NAME    = EARTH
REF_FRAME      = TEME
TIME_SYSTEM    = UTC
MEAN_ELEMENT_THEORY = SGP/SGP4

EPOCH          = 2025-11-30T18:07:01.282080
MEAN_MOTION    = 15.15254832
ECCENTRICITY   = .0012681
INCLINATION    = 51.7987
RA_OF_ASC_NODE = 28.9987
ARG_OF_PERICENTER = 313.1928
MEAN_ANOMALY   = 46.7988

EPHEMERIS_TYPE = 0
CLASSIFICATION_TYPE = U
NORAD_CAT_ID   = 66545
ELEMENT_SET_NO = 999
REV_AT_EPOCH   = 176
BSTAR          = .66821E-3
MEAN_MOTION_DOT = .1246E-3
MEAN_MOTION_DDOT = 0

CCSDS_OMM_VERS = 2.0
CREATION_DATE  = 
ORIGINATOR     = 

OBJECT_NAME    = SHIJIAN-30B
OBJECT_ID      = 2025-266B
CENTER_NAME    = EARTH
REF_FRAME      = TEME
TIME_SYSTEM    = UTC
MEAN_ELEMENT_THEORY = SGP/SGP4

EPOCH          = 2025-11-30T18:08:35.365632
MEAN_MOTION    = 15.15304537
ECCENTRICITY   = .0010354
INCLINATION    = 51.7970
RA_OF_ASC_NODE = 29.0043
ARG_OF_PERICENTER = 316.0072
MEAN_ANOMALY   = 44.0079

EPHEMERIS_TYPE = 0
CLASSIFICATION_TYPE = U
NORAD_CAT_ID   = 66546
ELEMENT_SET_NO = 999
REV_AT_EPOCH   = 176
BSTAR          = .77285E-3
MEAN_MOTION_DOT = .14476E-3
MEAN_MOTION_DDOT = 0

CCSDS_OMM_VERS = 2.0
CREATION_DATE  = 
ORIGINATOR     = 

OBJECT_NAME    = SHIJIAN-30C
OBJECT_ID      = 2025-266C
CENTER_NAME    = EARTH
REF_FRAME      = TEME
TIME_SYSTEM    = UTC
MEAN_ELEMENT_THEORY = SGP/SGP4

EPOCH          = 2025-11-30T18:09:46.931616
MEAN_MOTION    = 15.15352343
ECCENTRICITY   = .0011303
INCLINATION    = 51.7981
RA_OF_ASC_NODE = 29.0101
ARG_OF_PERICENTER = 308.2898
MEAN_ANOMALY   = 51.7061

EPHEMERIS_TYPE = 0
CLASSIFICATION_TYPE = U
NORAD_CAT_ID   = 66547
ELEMENT_SET_NO = 999
REV_AT_EPOCH   = 176
BSTAR          = .66108E-3
MEAN_MOTION_DOT = .12354E-3
MEAN_MOTION_DDOT = 0

CCSDS_OMM_VERS = 2.0
CREATION_DATE  = 
ORIGINATOR     = 

OBJECT_NAME    = CZ-2C R/B
OBJECT_ID      = 2025-266D
CENTER_NAME    = EARTH
REF_FRAME      = TEME
TIME_SYSTEM    = UTC
MEAN_ELEMENT_THEORY = SGP/SGP4

EPOCH          = 2025-11-30T04:35:02.312736
MEAN_MOTION    = 15.29753405
ECCENTRICITY   = .00850827
INCLINATION    = 52.0550
RA_OF_ASC_NODE = 31.0469
ARG_OF_PERICENTER = 130.2875
MEAN_ANOMALY   = 230.5588

EPHEMERIS_TYPE = 0
CLASSIFICATION_TYPE = U
NORAD_CAT_ID   = 66548
ELEMENT_SET_NO = 999
REV_AT_EPOCH   = 169
BSTAR          = .40032167E-3
MEAN_MOTION_DOT = .12686E-3
MEAN_MOTION_DDOT = 0

CCSDS_OMM_VERS = 2.0
CREATION_DATE  = 
ORIGINATOR     = 

OBJECT_NAME    = GLOBAL-33
OBJECT_ID      = 2025-267A
CENTER_NAME    = EARTH
REF_FRAME      = TEME
TIME_SYSTEM    = UTC
MEAN_ELEMENT_THEORY = SGP/SGP4

EPOCH          = 2025-11-30T11:13:38.609472
MEAN_MOTION    = 15.31188652
ECCENTRICITY   = .00058478
INCLINATION    = 42.0186
RA_OF_ASC_NODE = 127.8190
ARG_OF_PERICENTER = 326.7588
MEAN_ANOMALY   = 33.2882

EPHEMERIS_TYPE = 0
CLASSIFICATION_TYPE = U
NORAD_CAT_ID   = 66554
ELEMENT_SET_NO = 999
REV_AT_EPOCH   = 152
BSTAR          = .44243818E-3
MEAN_MOTION_DOT = .13396E-3
MEAN_MOTION_DDOT = 0

CCSDS_OMM_VERS = 2.0
CREATION_DATE  = 
ORIGINATOR     = 

OBJECT_NAME    = ELECTRON KICK STAGE R/B
OBJECT_ID      = 2025-267B
CENTER_NAME    = EARTH
REF_FRAME      = TEME
TIME_SYSTEM    = UTC
MEAN_ELEMENT_THEORY = SGP/SGP4

EPOCH          = 2025-11-30T11:07:36.501024
MEAN_MOTION    = 15.31955183
ECCENTRICITY   = .00076028
INCLINATION    = 42.0172
RA_OF_ASC_NODE = 127.7902
ARG_OF_PERICENTER = 326.1836
MEAN_ANOMALY   = 33.8516

EPHEMERIS_TYPE = 0
CLASSIFICATION_TYPE = U
NORAD_CAT_ID   = 66555
ELEMENT_SET_NO = 999
REV_AT_EPOCH   = 152
BSTAR          = .82617007E-3
MEAN_MOTION_DOT = .25902E-3
MEAN_MOTION_DDOT = 0

CCSDS_OMM_VERS = 2.0
CREATION_DATE  = 
ORIGINATOR     = 

OBJECT_NAME    = STARLINK-35699
OBJECT_ID      = 2025-268A
CENTER_NAME    = EARTH
REF_FRAME      = TEME
TIME_SYSTEM    = UTC
MEAN_ELEMENT_THEORY = SGP/SGP4

EPOCH          = 2025-11-30T14:00:01.999872
MEAN_MOTION    = 15.83663230
ECCENTRICITY   = .00018113
INCLINATION    = 42.9966
RA_OF_ASC_NODE = 193.6574
ARG_OF_PERICENTER = 267.0199
MEAN_ANOMALY   = 97.1574

EPHEMERIS_TYPE = 0
CLASSIFICATION_TYPE = U
NORAD_CAT_ID   = 66557
ELEMENT_SET_NO = 999
REV_AT_EPOCH   = 271
BSTAR          = -.69104396E-2
MEAN_MOTION_DOT = -.1374718E-1
MEAN_MOTION_DDOT = 0

CCSDS_OMM_VERS = 2.0
CREATION_DATE  = 
ORIGINATOR     = 

OBJECT_NAME    = STARLINK-35695
OBJECT_ID      = 2025-268B
CENTER_NAME    = EARTH
REF_FRAME      = TEME
TIME_SYSTEM    = UTC
MEAN_ELEMENT_THEORY = SGP/SGP4

EPOCH          = 2025-11-30T14:00:01.999872
MEAN_MOTION    = 15.83688101
ECCENTRICITY   = .00018278
INCLINATION    = 42.9966
RA_OF_ASC_NODE = 193.6526
ARG_OF_PERICENTER = 268.1000
MEAN_ANOMALY   = 98.0039

EPHEMERIS_TYPE = 0
CLASSIFICATION_TYPE = U
NORAD_CAT_ID   = 66558
ELEMENT_SET_NO = 999
REV_AT_EPOCH   = 271
BSTAR          = -.69435123E-2
MEAN_MOTION_DOT = -.1381897E-1
MEAN_MOTION_DDOT = 0

CCSDS_OMM_VERS = 2.0
CREATION_DATE  = 
ORIGINATOR     = 

OBJECT_NAME    = STARLINK-35419
OBJECT_ID      = 2025-268C
CENTER_NAME    = EARTH
REF_FRAME      = TEME
TIME_SYSTEM    = UTC
MEAN_ELEMENT_THEORY = SGP/SGP4

EPOCH          = 2025-11-30T14:00:01.999872
MEAN_MOTION    = 15.83698097
ECCENTRICITY   = .00018082
INCLINATION    = 42.9965
RA_OF_ASC_NODE = 193.6473
ARG_OF_PERICENTER = 261.6072
MEAN_ANOMALY   = 106.6197

EPHEMERIS_TYPE = 0
CLASSIFICATION_TYPE = U
NORAD_CAT_ID   = 66559
ELEMENT_SET_NO = 999
REV_AT_EPOCH   = 271
BSTAR          = -.69442885E-2
MEAN_MOTION_DOT = -.1382596E-1
MEAN_MOTION_DDOT = 0

CCSDS_OMM_VERS = 2.0
CREATION_DATE  = 
ORIGINATOR     = 

OBJECT_NAME    = STARLINK-35411
OBJECT_ID      = 2025-268D
CENTER_NAME    = EARTH
REF_FRAME      = TEME
TIME_SYSTEM    = UTC
MEAN_ELEMENT_THEORY = SGP/SGP4

EPOCH          = 2025-11-30T14:00:01.999872
MEAN_MOTION    = 15.83718140
ECCENTRICITY   = .00018051
INCLINATION    = 42.9968
RA_OF_ASC_NODE = 193.6423
ARG_OF_PERICENTER = 264.2484
MEAN_ANOMALY   = 105.9637

EPHEMERIS_TYPE = 0
CLASSIFICATION_TYPE = U
NORAD_CAT_ID   = 66560
ELEMENT_SET_NO = 999
REV_AT_EPOCH   = 271
BSTAR          = -.69587563E-2
MEAN_MOTION_DOT = -.1413517E-1
MEAN_MOTION_DDOT = 0

CCSDS_OMM_VERS = 2.0
CREATION_DATE  = 
ORIGINATOR     = 

OBJECT_NAME    = STARLINK-35305
OBJECT_ID      = 2025-268E
CENTER_NAME    = EARTH
REF_FRAME      = TEME
TIME_SYSTEM    = UTC
MEAN_ELEMENT_THEORY = SGP/SGP4

EPOCH          = 2025-11-30T14:00:01.999872
MEAN_MOTION    = 15.83756249
ECCENTRICITY   = .00018363
INCLINATION    = 42.9967
RA_OF_ASC_NODE = 193.6319
ARG_OF_PERICENTER = 265.7188
MEAN_ANOMALY   = 108.5805

EPHEMERIS_TYPE = 0
CLASSIFICATION_TYPE = U
NORAD_CAT_ID   = 66561
ELEMENT_SET_NO = 999
REV_AT_EPOCH   = 266
BSTAR          = -.70401969E-2
MEAN_MOTION_DOT = -.1430574E-1
MEAN_MOTION_DDOT = 0

CCSDS_OMM_VERS = 2.0
CREATION_DATE  = 
ORIGINATOR     = 

OBJECT_NAME    = STARLINK-35579
OBJECT_ID      = 2025-268F
CENTER_NAME    = EARTH
REF_FRAME      = TEME
TIME_SYSTEM    = UTC
MEAN_ELEMENT_THEORY = SGP/SGP4

EPOCH          = 2025-11-30T14:00:01.999872
MEAN_MOTION    = 15.83730858
ECCENTRICITY   = .00017892
INCLINATION    = 42.9966
RA_OF_ASC_NODE = 193.6366
ARG_OF_PERICENTER = 263.5938
MEAN_ANOMALY   = 108.7454

EPHEMERIS_TYPE = 0
CLASSIFICATION_TYPE = U
NORAD_CAT_ID   = 66562
ELEMENT_SET_NO = 999
REV_AT_EPOCH   = 271
BSTAR          = -.69861654E-2
MEAN_MOTION_DOT = -.1419232E-1
MEAN_MOTION_DDOT = 0

